NORAD_CAT_ID,OBJECT_NAME,OBJECT_TYPE,EPOCH,MEAN_MOTION,ECCENTRICITY,INCLINATION,RA_OF_ASC_NODE,ARG_OF_PERICENTER,MEAN_ANOMALY,BSTAR,MEAN_MOTION_DOT,MEAN_MOTION_DDOT,TLE_LINE0,TLE_LINE1,TLE_LINE2,SEMIMAJOR_AXIS,PERIOD,APOGEE,PERIGEE,DECAYED
52092.0,STARLINK-3716,PAYLOAD,2022-07-23 14:00:01,15.08809194,0.0001513,53.2163,277.7552,46.4798,125.7896,0.00087525,0.00013657,0.0,0 STARLINK-3716,1 52092U 22029E   22204.58335648  .00013657  00000-0  87525-3 0  9997,2 52092  53.2163 277.7552 0001513  46.4798 125.7896 15.08809194  1300,6917.975,95.44,540.886,538.793,0.0
52092.0,STARLINK-3716,PAYLOAD,2022-07-23 22:00:00,15.08831933,0.000135,53.2164,276.2576,48.3223,135.4525,-0.00083853,-0.00013605,0.0,0 STARLINK-3716,1 52092U 22029E   22204.91667824 -.00013605  00000-0 -83853-3 0  9993,2 52092  53.2164 276.2576 0001350  48.3223 135.4525 15.08831933  1307,6917.905,95.438,540.7040000000002,538.836,0.0
52092.0,STARLINK-3716,PAYLOAD,2022-07-24 06:00:00,15.08832926,0.0001324,53.2168,274.7583,53.3018,142.0436,0.00014169,1.967e-05,0.0,0 STARLINK-3716,1 52092U 22029E   22205.25001157  .00001967  00000-0  14169-3 0  9992,2 52092  53.2168 274.7583 0001324  53.3018 142.0436 15.08832926 20704,6917.901999999999,95.438,540.683,538.851,0.0
52092.0,STARLINK-3716,PAYLOAD,2022-07-24 14:00:01,15.08813566,0.0001506,53.2165,273.2664,44.6009,162.3359,0.002321,0.00036817,0.0,0 STARLINK-3716,1 52092U 22029E   22205.58334491  .00036817  00000-0  23210-2 0  9996,2 52092  53.2165 273.2664 0001506  44.6009 162.3359 15.08813566  1303,6917.9609999999975,95.439,540.868,538.784,0.0
52092.0,STARLINK-3716,PAYLOAD,2022-07-24 22:00:00,15.08842649,0.0001331999999999,53.2164,271.7686,48.1327,170.3849,-0.00074346,-0.00012101,0.0,0 STARLINK-3716,1 52092U 22029E   22205.91667824 -.00012101  00000-0 -74346-3 0  9991,2 52092  53.2164 271.7686 0001332  48.1327 170.3849 15.08842649  1305,6917.871999999999,95.437,540.659,538.816,0.0
52092.0,STARLINK-3716,PAYLOAD,2022-07-25 14:00:01,15.08823835,0.0001493,53.2162,268.7776,44.2472,197.466,0.0024366,0.00038686,0.0,0 STARLINK-3716,1 52092U 22029E   22206.58334491  .00038686  00000-0  24366-2 0  9996,2 52092  53.2162 268.7776 0001493  44.2472 197.4660 15.08823835  1302,6917.93,95.439,540.828,538.762,0.0
52092.0,STARLINK-3716,PAYLOAD,2022-07-25 22:00:00,15.08848144,0.000132,53.216,267.2796,48.6085,204.6999,-0.00037683,-6.281e-05,0.0,0 STARLINK-3716,1 52092U 22029E   22206.91667824 -.00006281  00000-0 -37683-3 0  9997,2 52092  53.2160 267.2796 0001320  48.6085 204.6999 15.08848144  1309,6917.855,95.437,540.634,538.807,0.0
52092.0,STARLINK-3716,PAYLOAD,2022-07-26 06:00:00,15.08872439,0.0001336,53.2159,265.7836,53.7788,211.1235,-0.0028584,-0.00045532,0.0,0 STARLINK-3716,1 52092U 22029E   22207.25001157 -.00045532  00000-0 -28584-2 0  9997,2 52092  53.2159 265.7836 0001336  53.7788 211.1235 15.08872439 21008,6917.781,95.436,540.57,538.722,0.0
52092.0,STARLINK-3716,PAYLOAD,2022-07-26 14:00:01,15.0880909,0.0001571,53.2155,264.2887,47.2558,229.2685,0.001954,0.0003092,0.0,0 STARLINK-3716,1 52092U 22029E   22207.58334491  .00030920  00000-0  19540-2 0  9998,2 52092  53.2155 264.2887 0001571  47.2558 229.2685 15.08809090  1301,6917.975,95.44,540.927,538.753,0.0
52092.0,STARLINK-3716,PAYLOAD,2022-07-26 22:00:00,15.08822313,0.0001416999999999,53.2152,262.7907,52.4034,235.6961,0.00010739,1.421e-05,0.0,0 STARLINK-3716,1 52092U 22029E   22207.91667824  .00001421  00000-0  10739-3 0  9990,2 52092  53.2152 262.7907 0001417  52.4034 235.6961 15.08822313  1301,6917.934,95.439,540.78,538.819,0.0
52092.0,STARLINK-3716,PAYLOAD,2022-07-27 06:00:02,15.08844108,0.0001437,53.2151,261.2947,55.4249,244.3085,-0.0012863,-0.00020703,0.0,0 STARLINK-3716,1 52092U 22029E   22208.25002315 -.00020703  00000-0 -12863-2 0  9991,2 52092  53.2151 261.2947 0001437  55.4249 244.3085 15.08844108 21156,6917.868,95.437,540.727,538.739,0.0
52092.0,STARLINK-3716,PAYLOAD,2022-07-27 14:00:01,15.08809259,0.0001592,53.2147,259.7998,47.6301,263.6349,0.0026514,0.00042126,0.0,0 STARLINK-3716,1 52092U 22029E   22208.58334491  .00042126  00000-0  26514-2 0  9999,2 52092  53.2147 259.7998 0001592  47.6301 263.6349 15.08809259  1303,6917.974,95.439,540.941,538.738,0.0
52092.0,STARLINK-3716,PAYLOAD,2022-07-27 22:00:00,15.08825533,0.0001449,53.2145,258.3017,52.4109,270.438,0.00077439,0.00012053,0.0,0 STARLINK-3716,1 52092U 22029E   22208.91667824  .00012053  00000-0  77439-3 0  9994,2 52092  53.2145 258.3017 0001449  52.4109 270.4380 15.08825533  1303,6917.925,95.438,540.7919999999998,538.7869999999998,0.0
52092.0,STARLINK-3716,PAYLOAD,2022-07-28 08:00:01,15.08850788,0.0001563,53.2143,256.4322,51.497,15.8287,-0.001866,-0.00029872,0.0,0 STARLINK-3716,1 52092U 22029E   22209.33334491 -.00029872  00000-0 -18660-2 0  9991,2 52092  53.2143 256.4322 0001563  51.4970  15.8287 15.08850788 21322,6917.847,95.437,540.794,538.631,0.0
52092.0,STARLINK-3716,PAYLOAD,2022-07-28 14:00:01,15.08817145,0.0001645,53.2142,255.3106,46.7201,299.307,0.0026639,0.00042337,0.0,0 STARLINK-3716,1 52092U 22029E   22209.58334491  .00042337  00000-0  26639-2 0  9992,2 52092  53.2142 255.3106 0001645  46.7201 299.3070 15.08817145  1309,6917.95,95.439,540.953,538.677,0.0
52092.0,STARLINK-3716,PAYLOAD,2022-07-28 22:00:00,15.0882707,0.0001506,53.2142,253.8124,51.858,305.7621,0.0012667,0.00019922,0.0,0 STARLINK-3716,1 52092U 22029E   22209.91667824  .00019922  00000-0  12667-2 0  9998,2 52092  53.2142 253.8124 0001506  51.8580 305.7621 15.08827070  1307,6917.92,95.438,540.827,538.743,0.0
52092.0,STARLINK-3716,PAYLOAD,2022-07-29 00:00:00,15.08818374,0.0001475,53.2143,253.437,53.0733,37.4478,0.0027252,0.00043325,0.0,0 STARLINK-3716,1 52092U 22029E   22210.00001157  .00043325  00000-0  27252-2 0  9991,2 52092  53.2143 253.4370 0001475  53.0733  37.4478 15.08818374 21427,6917.946,95.439,540.832,538.7909999999998,0.0
52092.0,STARLINK-3716,PAYLOAD,2022-07-29 14:00:01,15.08826303,0.0001723,53.2141,250.8212,45.6428,335.1729,0.0025324,0.00040231,0.0,0 STARLINK-3716,1 52092U 22029E   22210.58334491  .00040231  00000-0  25324-2 0  9995,2 52092  53.2141 250.8212 0001723  45.6428 335.1729 15.08826303 21513,6917.922,95.438,540.979,538.595,0.0
52092.0,STARLINK-3716,PAYLOAD,2022-07-29 22:00:00,15.08830817,0.0001573,53.2142,249.3229,50.996,341.4235,0.0017422,0.00027541,0.0,0 STARLINK-3716,1 52092U 22029E   22210.91667824  .00027541  00000-0  17422-2 0  9990,2 52092  53.2142 249.3229 0001573  50.9960 341.4235 15.08830817  1300,6917.908,95.438,540.862,538.685,0.0
52092.0,STARLINK-3716,PAYLOAD,2022-07-30 06:00:00,15.08867814,0.0001685,53.2144,247.8271,51.0544,352.9562,-0.0019496,-0.00031206,0.0,0 STARLINK-3716,1 52092U 22029E   22211.25001157 -.00031206  00000-0 -19496-2 0  9997,2 52092  53.2144 247.8271 0001685  51.0544 352.9562 15.08867814 21619,6917.795,95.436,540.826,538.495,0.0
52092.0,STARLINK-3716,PAYLOAD,2022-07-30 14:00:01,15.08844397,0.0001774999999999,53.2142,246.3316,44.0375,11.5878,0.0004243999999999,6.474e-05,0.0,0 STARLINK-3716,1 52092U 22029E   22211.58334491  .00006474  00000-0  42440-3 0  9996,2 52092  53.2142 246.3316 0001775  44.0375  11.5878 15.08844397  1308,6917.8669999999975,95.437,540.96,538.504,0.0
52092.0,STARLINK-3716,PAYLOAD,2022-07-30 22:00:00,15.0881389,0.0001549,53.2146,244.8333,48.4774,18.7637,0.0014555,0.00022936,0.0,0 STARLINK-3716,1 52092U 22029E   22211.91667824  .00022936  00000-0  14555-2 0  9998,2 52092  53.2146 244.8333 0001549  48.4774  18.7637 15.08813890  1300,6917.96,95.439,540.8969999999998,538.754,0.0
52092.0,STARLINK-3716,PAYLOAD,2022-07-31 06:00:02,15.08846403,0.000167,53.2147,243.3376,47.9395,30.9344,-0.00203,-0.00032456,0.0,0 STARLINK-3716,1 52092U 22029E   22212.25002315 -.00032456  00000-0 -20300-2 0  9999,2 52092  53.2147 243.3376 0001670  47.9395  30.9344 15.08846403 21769,6917.861,95.437,540.881,538.571,0.0
52092.0,STARLINK-3716,PAYLOAD,2022-07-31 14:00:01,15.08817632,0.000178,53.2145,241.842,42.3147,48.0859,0.0017917999999999,0.00028326,0.0,0 STARLINK-3716,1 52092U 22029E   22212.58334491  .00028326  00000-0  17918-2 0  9998,2 52092  53.2145 241.8420 0001780  42.3147  48.0859 15.08817632  1307,6917.949000000001,95.439,541.045,538.582,0.0
52092.0,STARLINK-3716,PAYLOAD,2022-07-31 22:00:00,15.08811626,0.0001581,53.2148,240.3438,48.3278,53.6626,0.0022815,0.00036181,0.0,0 STARLINK-3716,1 52092U 22029E   22212.91667824  .00036181  00000-0  22815-2 0  9994,2 52092  53.2148 240.3438 0001581  48.3278  53.6626 15.08811626 21867,6917.967,95.439,540.9259999999998,538.738,0.0
52092.0,STARLINK-3716,PAYLOAD,2022-08-01 14:00:01,15.08827035,0.0001803,53.2147,237.3525,42.6814,82.4769,0.0012657,0.00019906,0.0,0 STARLINK-3716,1 52092U 22029E   22213.58334491  .00019906  00000-0  12657-2 0  9998,2 52092  53.2147 237.3525 0001803  42.6814  82.4769 15.08827035  1305,6917.92,95.438,541.0319999999998,538.538,0.0
52092.0,STARLINK-3716,PAYLOAD,2022-08-01 22:00:00,15.08814933,0.0001591,53.2149,235.8544,48.9432,87.8107,0.0023212,0.00036822,0.0,0 STARLINK-3716,1 52092U 22029E   22213.91667824  .00036822  00000-0  23212-2 0  9999,2 52092  53.2149 235.8544 0001591  48.9432  87.8107 15.08814933  1308,6917.956999999999,95.439,540.923,538.721,0.0
52092.0,STARLINK-3716,PAYLOAD,2022-08-02 14:00:01,15.0883452,0.0001810999999999,53.2146,232.863,43.8963,116.0332,0.00060191,9.303e-05,0.0,0 STARLINK-3716,1 52092U 22029E   22214.58334491  .00009303  00000-0  60191-3 0  9996,2 52092  53.2146 232.8630 0001811  43.8963 116.0332 15.08834520  1305,6917.897,95.438,541.015,538.509,0.0
52092.0,STARLINK-3716,PAYLOAD,2022-08-03 14:00:01,15.08841436,0.0001831999999999,53.2144,228.3737,45.4272,149.2816,-6.695199999999999e-05,-1.354e-05,0.0,0 STARLINK-3716,1 52092U 22029E   22215.58334491 -.00001354  00000-0 -66952-4 0  9999,2 52092  53.2144 228.3737 0001832  45.4272 149.2816 15.08841436 22262,6917.876,95.437,541.008,538.474,0.0
